start=new Date('2023-01-06T00:00:00.000Z').valueOf();
sats=[{"CLASSIFICATION_TYPE":"U","RCS_SIZE":"LARGE","REF_FRAME":"TEME","CENTER_NAME":"EARTH","ELEMENT_SET_NO":"999","BSTAR":"0.00050364000000","GP_ID":"222291439","EPHEMERIS_TYPE":"0","OBJECT_TYPE":"PAYLOAD","COUNTRY_CODE":"US","APOAPSIS":"541.332","MEAN_MOTION":"15.08860044","ECCENTRICITY":"0.00023820","PERIAPSIS":"538.036","PERIOD":"95.436","DECAY_DATE":null,"EPOCH":"2023-01-05T06:23:36.601440","MEAN_ELEMENT_THEORY":"SGP4","MEAN_ANOMALY":"319.4063","OBJECT_NAME":"STARLINK-4165","SEMIMAJOR_AXIS":"6917.819","LAUNCH_DATE":"2022-07-24","RA_OF_ASC_NODE":"348.9655","MEAN_MOTION_DOT":"0.00007741","NORAD_CAT_ID":"53286","MEAN_MOTION_DDOT":"0.0000000000000","TLE_LINE1":"1 53286U 22086AW  23005.26639585  .00007741  00000-0  50364-3 0  9996","SITE":"AFETR","TLE_LINE2":"2 53286  53.2190 348.9655 0002382  40.7107 319.4063 15.08860044 26156","INCLINATION":"53.2190","OBJECT_ID":"2022-086AW","REV_AT_EPOCH":"2615","ARG_OF_PERICENTER":"40.7107","FILE":"3732963","TIME_SYSTEM":"UTC"},{"ELEMENT_SET_NO":"999","BSTAR":"0.00005062700000","REF_FRAME":"TEME","CENTER_NAME":"EARTH","GP_ID":"222292143","RCS_SIZE":"LARGE","CLASSIFICATION_TYPE":"U","ECCENTRICITY":"0.00021710","PERIAPSIS":"538.244","PERIOD":"95.438","OBJECT_TYPE":"PAYLOAD","EPHEMERIS_TYPE":"0","APOAPSIS":"541.248","MEAN_MOTION":"15.08839771","COUNTRY_CODE":"US","NORAD_CAT_ID":"53287","MEAN_MOTION_DOT":"0.00000518","SITE":"AFETR","MEAN_MOTION_DDOT":"0.0000000000000","TLE_LINE1":"1 53287U 22086AX  23005.64912861  .00000518  00000-0  50627-4 0  9998","DECAY_DATE":null,"MEAN_ELEMENT_THEORY":"SGP4","EPOCH":"2023-01-05T15:34:44.711904","OBJECT_NAME":"STARLINK-4107","LAUNCH_DATE":"2022-07-24","SEMIMAJOR_AXIS":"6917.881","RA_OF_ASC_NODE":"347.2465","MEAN_ANOMALY":"324.2131","FILE":"3732963","ARG_OF_PERICENTER":"35.9006","TIME_SYSTEM":"UTC","OBJECT_ID":"2022-086AX","REV_AT_EPOCH":"2621","TLE_LINE2":"2 53287  53.2194 347.2465 0002171  35.9006 324.2131 15.08839771 26212","INCLINATION":"53.2194"},{"APOAPSIS":"541.458","MEAN_MOTION":"15.08848398","COUNTRY_CODE":"US","EPHEMERIS_TYPE":"0","OBJECT_TYPE":"PAYLOAD","PERIAPSIS":"537.981","PERIOD":"95.437","ECCENTRICITY":"0.00025130","RCS_SIZE":"LARGE","CLASSIFICATION_TYPE":"U","GP_ID":"222292371","BSTAR":"0.00009791400000","ELEMENT_SET_NO":"999","REF_FRAME":"TEME","CENTER_NAME":"EARTH","TLE_LINE2":"2 53288  53.2193 347.1946 0002513  34.6884 325.4272 15.08848398 26219","INCLINATION":"53.2193","ARG_OF_PERICENTER":"34.6884","FILE":"3732963","TIME_SYSTEM":"UTC","OBJECT_ID":"2022-086AY","REV_AT_EPOCH":"2621","OBJECT_NAME":"STARLINK-4162","LAUNCH_DATE":"2022-07-24","SEMIMAJOR_AXIS":"6917.855","RA_OF_ASC_NODE":"347.1946","MEAN_ANOMALY":"325.4272","DECAY_DATE":null,"MEAN_ELEMENT_THEORY":"SGP4","EPOCH":"2023-01-05T15:50:36.153024","SITE":"AFETR","MEAN_MOTION_DDOT":"0.0000000000000","TLE_LINE1":"1 53288U 22086AY  23005.66014066  .00001271  00000-0  97914-4 0  9998","NORAD_CAT_ID":"53288","MEAN_MOTION_DOT":"0.00001271"},{"GP_ID":"222291678","CENTER_NAME":"EARTH","REF_FRAME":"TEME","ELEMENT_SET_NO":"999","BSTAR":"-0.00104470000000","CLASSIFICATION_TYPE":"U","RCS_SIZE":"LARGE","PERIOD":"95.438","PERIAPSIS":"538.829","ECCENTRICITY":"0.00013390","COUNTRY_CODE":"US","MEAN_MOTION":"15.08836823","APOAPSIS":"540.681","EPHEMERIS_TYPE":"0","OBJECT_TYPE":"PAYLOAD","TLE_LINE1":"1 53289U 22086AZ  23005.62293564 -.00016874  00000-0 -10447-2 0  9998","MEAN_MOTION_DDOT":"0.0000000000000","SITE":"AFETR","MEAN_MOTION_DOT":"-0.00016874","NORAD_CAT_ID":"53289","MEAN_ANOMALY":"31.6235","RA_OF_ASC_NODE":"342.4785","LAUNCH_DATE":"2022-07-24","SEMIMAJOR_AXIS":"6917.890","OBJECT_NAME":"STARLINK-4176","EPOCH":"2023-01-05T14:57:01.639296","MEAN_ELEMENT_THEORY":"SGP4","DECAY_DATE":null,"REV_AT_EPOCH":"2627","OBJECT_ID":"2022-086AZ","TIME_SYSTEM":"UTC","FILE":"3732963","ARG_OF_PERICENTER":"328.4677","INCLINATION":"53.2177","TLE_LINE2":"2 53289  53.2177 342.4785 0001339 328.4677  31.6235 15.08836823 26271"},{"ECCENTRICITY":"0.00021030","PERIAPSIS":"538.244","PERIOD":"95.437","EPHEMERIS_TYPE":"0","OBJECT_TYPE":"PAYLOAD","COUNTRY_CODE":"US","APOAPSIS":"541.154","MEAN_MOTION":"15.08855072","REF_FRAME":"TEME","CENTER_NAME":"EARTH","BSTAR":"0.00015501000000","ELEMENT_SET_NO":"999","GP_ID":"222265919","CLASSIFICATION_TYPE":"U","RCS_SIZE":"LARGE","OBJECT_ID":"2022-086BA","REV_AT_EPOCH":"2617","ARG_OF_PERICENTER":"32.4134","FILE":"3732939","TIME_SYSTEM":"UTC","TLE_LINE2":"2 53290  53.2194 348.4205 0002103  32.4134 327.6987 15.08855072 26173","INCLINATION":"53.2194","MEAN_MOTION_DOT":"0.00002181","NORAD_CAT_ID":"53290","MEAN_MOTION_DDOT":"0.0000000000000","TLE_LINE1":"1 53290U 22086BA  23005.38782572  .00002181  00000-0  15501-3 0  9996","SITE":"AFETR","DECAY_DATE":null,"MEAN_ELEMENT_THEORY":"SGP4","EPOCH":"2023-01-05T09:18:28.142208","MEAN_ANOMALY":"327.6987","OBJECT_NAME":"STARLINK-4149","LAUNCH_DATE":"2022-07-24","SEMIMAJOR_AXIS":"6917.834","RA_OF_ASC_NODE":"348.4205"},{"GP_ID":"222292604","REF_FRAME":"TEME","CENTER_NAME":"EARTH","ELEMENT_SET_NO":"999","BSTAR":"0.00014831000000","CLASSIFICATION_TYPE":"U","RCS_SIZE":"LARGE","PERIAPSIS":"538.436","PERIOD":"95.438","ECCENTRICITY":"0.00019330","COUNTRY_CODE":"US","APOAPSIS":"541.111","MEAN_MOTION":"15.08830780","EPHEMERIS_TYPE":"0","OBJECT_TYPE":"PAYLOAD","MEAN_MOTION_DDOT":"0.0000000000000","TLE_LINE1":"1 53291U 22086BB  23005.65603871  .00002072  00000-0  14831-3 0  9995","SITE":"AFETR","MEAN_MOTION_DOT":"0.00002072","NORAD_CAT_ID":"53291","MEAN_ANOMALY":"327.3486","OBJECT_NAME":"STARLINK-4166","LAUNCH_DATE":"2022-07-24","RA_OF_ASC_NODE":"341.9779","SEMIMAJOR_AXIS":"6917.909","DECAY_DATE":null,"MEAN_ELEMENT_THEORY":"SGP4","EPOCH":"2023-01-05T15:44:41.744544","OBJECT_ID":"2022-086BB","REV_AT_EPOCH":"2628","FILE":"3732963","ARG_OF_PERICENTER":"32.7626","TIME_SYSTEM":"UTC","TLE_LINE2":"2 53291  53.2173 341.9779 0001933  32.7626 327.3486 15.08830780 26286","INCLINATION":"53.2173"},{"PERIAPSIS":"538.232","PERIOD":"95.437","ECCENTRICITY":"0.00021200","COUNTRY_CODE":"US","APOAPSIS":"541.165","MEAN_MOTION":"15.08855362","OBJECT_TYPE":"PAYLOAD","EPHEMERIS_TYPE":"0","GP_ID":"222292832","REF_FRAME":"TEME","CENTER_NAME":"EARTH","BSTAR":"0.00016717000000","ELEMENT_SET_NO":"999","CLASSIFICATION_TYPE":"U","RCS_SIZE":"LARGE","OBJECT_ID":"2022-086BC","REV_AT_EPOCH":"2621","FILE":"3732963","ARG_OF_PERICENTER":"35.0838","TIME_SYSTEM":"UTC","TLE_LINE2":"2 53292  53.2206 347.2636 0002120  35.0838 325.0294 15.08855362 26213","INCLINATION":"53.2206","MEAN_MOTION_DDOT":"0.0000000000000","TLE_LINE1":"1 53292U 22086BC  23005.64638159  .00002374  00000-0  16717-3 0  9992","SITE":"AFETR","MEAN_MOTION_DOT":"0.00002374","NORAD_CAT_ID":"53292","MEAN_ANOMALY":"325.0294","OBJECT_NAME":"STARLINK-4159","LAUNCH_DATE":"2022-07-24","RA_OF_ASC_NODE":"347.2636","SEMIMAJOR_AXIS":"6917.833","DECAY_DATE":null,"EPOCH":"2023-01-05T15:30:47.369376","MEAN_ELEMENT_THEORY":"SGP4"},{"INCLINATION":"53.2189","TLE_LINE2":"2 53293  53.2189 337.3947 0001997  40.6524 319.4617 15.08850602 26346","TIME_SYSTEM":"UTC","ARG_OF_PERICENTER":"40.6524","FILE":"3732963","REV_AT_EPOCH":"2634","OBJECT_ID":"2022-086BD","LAUNCH_DATE":"2022-07-24","RA_OF_ASC_NODE":"337.3947","SEMIMAJOR_AXIS":"6917.848","OBJECT_NAME":"STARLINK-4148","MEAN_ANOMALY":"319.4617","MEAN_ELEMENT_THEORY":"SGP4","EPOCH":"2023-01-05T14:49:42.981312","DECAY_DATE":null,"SITE":"AFETR","TLE_LINE1":"1 53293U 22086BD  23005.61785858  .00001357  00000-0  10330-3 0  9994","MEAN_MOTION_DDOT":"0.0000000000000","NORAD_CAT_ID":"53293","MEAN_MOTION_DOT":"0.00001357","MEAN_MOTION":"15.08850602","APOAPSIS":"541.094","COUNTRY_CODE":"US","EPHEMERIS_TYPE":"0","OBJECT_TYPE":"PAYLOAD","PERIOD":"95.437","PERIAPSIS":"538.331","ECCENTRICITY":"0.00019970","RCS_SIZE":"LARGE","CLASSIFICATION_TYPE":"U","GP_ID":"222291206","ELEMENT_SET_NO":"999","BSTAR":"0.00010330000000","CENTER_NAME":"EARTH","REF_FRAME":"TEME"},{"INCLINATION":"53.2202","TLE_LINE2":"2 53294  53.2202 337.2399 0002504  36.3923 323.7239 15.08859913 26390","TIME_SYSTEM":"UTC","FILE":"3732963","ARG_OF_PERICENTER":"36.3923","REV_AT_EPOCH":"2639","OBJECT_ID":"2022-086BE","EPOCH":"2023-01-05T15:37:24.165696","MEAN_ELEMENT_THEORY":"SGP4","DECAY_DATE":null,"LAUNCH_DATE":"2022-07-24","RA_OF_ASC_NODE":"337.2399","SEMIMAJOR_AXIS":"6917.820","OBJECT_NAME":"STARLINK-4146","MEAN_ANOMALY":"323.7239","NORAD_CAT_ID":"53294","MEAN_MOTION_DOT":"0.00002040","SITE":"AFETR","TLE_LINE1":"1 53294U 22086BE  23005.65097414  .00002040  00000-0  14616-3 0  9994","MEAN_MOTION_DDOT":"0.0000000000000","EPHEMERIS_TYPE":"0","OBJECT_TYPE":"PAYLOAD","MEAN_MOTION":"15.08859913","APOAPSIS":"541.417","COUNTRY_CODE":"US","ECCENTRICITY":"0.00025040","PERIOD":"95.436","PERIAPSIS":"537.952","RCS_SIZE":"LARGE","CLASSIFICATION_TYPE":"U","ELEMENT_SET_NO":"999","BSTAR":"0.00014616000000","CENTER_NAME":"EARTH","REF_FRAME":"TEME","GP_ID":"222291440"},{"SITE":"AFETR","TLE_LINE1":"1 53388U 22097A   23005.19095232  .00011071  00000-0  71186-3 0  9994","MEAN_MOTION_DDOT":"0.0000000000000","NORAD_CAT_ID":"53388","MEAN_MOTION_DOT":"0.00011071","LAUNCH_DATE":"2022-08-10","SEMIMAJOR_AXIS":"6917.769","RA_OF_ASC_NODE":"289.3293","OBJECT_NAME":"STARLINK-4522","MEAN_ANOMALY":"331.4313","MEAN_ELEMENT_THEORY":"SGP4","EPOCH":"2023-01-05T04:34:58.280448","DECAY_DATE":null,"TIME_SYSTEM":"UTC","ARG_OF_PERICENTER":"28.6840","FILE":"3732939","REV_AT_EPOCH":"2380","OBJECT_ID":"2022-097A","INCLINATION":"53.2166","TLE_LINE2":"2 53388  53.2166 289.3293 0002924  28.6840 331.4313 15.08876470 23800","GP_ID":"222266160","BSTAR":"0.00071186000000","ELEMENT_SET_NO":"999","CENTER_NAME":"EARTH","REF_FRAME":"TEME","RCS_SIZE":"LARGE","CLASSIFICATION_TYPE":"U","PERIOD":"95.435","PERIAPSIS":"537.611","ECCENTRICITY":"0.00029240","MEAN_MOTION":"15.08876470","APOAPSIS":"541.657","COUNTRY_CODE":"US","EPHEMERIS_TYPE":"0","OBJECT_TYPE":"PAYLOAD"}];
